{
    "links": {
        "self": "http://www.neowsapp.com/rest/v1/neo/3713994?api_key=iIulBulltgU6a56xZRHN4H3l9WmuAYTsLGpBGhQ2"
    },
    "id": "3713994",
    "neo_reference_id": "3713994",
    "name": "(2015 FH35)",
    "designation": "2015 FH35",
    "nasa_jpl_url": "http://ssd.jpl.nasa.gov/sbdb.cgi?sstr=3713994",
    "absolute_magnitude_h": 22.9,
    "estimated_diameter": {
        "kilometers": {
            "estimated_diameter_min": 0.0699125232,
            "estimated_diameter_max": 0.1563291544
        },
        "meters": {
            "estimated_diameter_min": 69.9125232246,
            "estimated_diameter_max": 156.3291544087
        },
        "miles": {
            "estimated_diameter_min": 0.0434416145,
            "estimated_diameter_max": 0.097138403
        },
        "feet": {
            "estimated_diameter_min": 229.3718026961,
            "estimated_diameter_max": 512.8909429502
        }
    },
    "is_potentially_hazardous_asteroid": false,
    "close_approach_data": [
        {
            "close_approach_date": "2015-02-19",
            "close_approach_date_full": "2015-Feb-19 08:38",
            "epoch_date_close_approach": 1424335080000,
            "relative_velocity": {
                "kilometers_per_second": "10.9637668239",
                "kilometers_per_hour": "39469.5605661397",
                "miles_per_hour": "24524.8500084439"
            },
            "miss_distance": {
                "astronomical": "0.1021288153",
                "lunar": "39.7281091517",
                "kilometers": "15278253.234503411",
                "miles": "9493466.3420366318"
            },
            "orbiting_body": "Earth"
        }
    ],
    "orbital_data": {
        "orbit_id": "5",
        "orbit_determination_date": "2017-04-06 08:34:55",
        "first_observation_date": "2015-03-20",
        "last_observation_date": "2015-03-29",
        "data_arc_in_days": 9,
        "observations_used": 24,
        "orbit_uncertainty": "8",
        "minimum_orbit_intersection": ".0439305",
        "jupiter_tisserand_invariant": "3.788",
        "epoch_osculation": "2457103.5",
        "eccentricity": ".5100300372170252",
        "semi_major_axis": "1.887985200914257",
        "inclination": "5.091670426718712",
        "ascending_node_longitude": "216.6730111239476",
        "orbital_period": "947.5372790546442",
        "perihelion_distance": ".9250560386267659",
        "perihelion_argument": "247.6165066085577",
        "aphelion_distance": "2.850914363201749",
        "perihelion_time": "2457039.297931566264",
        "mean_anomaly": "24.39243832095397",
        "mean_motion": ".3799322812493153",
        "equinox": "J2000",
        "orbit_class": {
            "orbit_class_type": "APO",
            "orbit_class_description": "Near-Earth asteroid orbits which cross the Earth’s orbit similar to that of 1862 Apollo",
            "orbit_class_range": "a (semi-major axis) > 1.0 AU; q (perihelion) < 1.017 AU"
        }
    },
    "is_sentry_object": false
}